[{"OBJECT_NAME":"STARLINK-5594","OBJECT_ID":"2023-028B","EPOCH":"2026-03-09T20:52:36.158880","MEAN_MOTION":14.98332681,"ECCENTRICITY":0.00024521,"INCLINATION":69.9991,"RA_OF_ASC_NODE":244.1407,"ARG_OF_PERICENTER":272.6317,"MEAN_ANOMALY":87.4561,"EPHEMERIS_TYPE":0,"CLASSIFICATION_TYPE":"U","NORAD_CAT_ID":55742,"ELEMENT_SET_NO":999,"REV_AT_EPOCH":16606,"BSTAR":-0.00010407127,"MEAN_MOTION_DOT":-1.335e-5,"MEAN_MOTION_DDOT":0},{"OBJECT_NAME":"FENGYUN 1C DEB","OBJECT_ID":"1999-025CKU","EPOCH":"2026-03-07T04:09:20.285280","MEAN_MOTION":14.64130912,"ECCENTRICITY":0.01755094,"INCLINATION":99.0838,"RA_OF_ASC_NODE":38.0129,"ARG_OF_PERICENTER":68.0231,"MEAN_ANOMALY":310.4177,"EPHEMERIS_TYPE":0,"CLASSIFICATION_TYPE":"U","NORAD_CAT_ID":31893,"ELEMENT_SET_NO":999,"REV_AT_EPOCH":99640,"BSTAR":0.00044028638,"MEAN_MOTION_DOT":2.831e-5,"MEAN_MOTION_DDOT":0}]
